{
  "type": "FeatureCollection",
  "features": [
    {
      "type": "Feature",
      "properties": {
        "norad_id": 37532,
        "name": "COSMOS 2251 DEB",
        "group": "cosmos-2251-debris",
        "lat": -58.13612586430883,
        "lon": 75.32705178906764,
        "alt_km": 756.8184343656494,
        "timestamp": "2025-12-06T03:35:02.283965+00:00",
        "meta_object_name": "COSMOS 2251 DEB",
        "meta_object_id": "1993-036BNM",
        "meta_epoch": "2025-12-04T11:18:53.699040",
        "meta_mean_motion": 14.4238829,
        "meta_eccentricity": 0.0015732,
        "meta_inclination": 74.0505,
        "meta_ra_of_asc_node": 231.0425,
        "meta_arg_of_pericenter": 332.875,
        "meta_mean_anomaly": 200.2675,
        "meta_ephemeris_type": 0,
        "meta_classification_type": "U",
        "meta_norad_cat_id": 37532,
        "meta_element_set_no": 999,
        "meta_rev_at_epoch": 84796,
        "meta_bstar": 0.00044921,
        "meta_mean_motion_dot": 1.461e-05,
        "meta_mean_motion_ddot": 0,
        "tle_line1": "1 37532U 93036BNM 25338.47145485  .00001461  00000+0  44921-3 0  9994",
        "tle_line2": "2 37532  74.0505 231.0425 0015732 332.8750 200.2675 14.42388290847963"
      },
      "geometry": {
        "type": "Point",
        "coordinates": [
          75.32705178906764,
          -58.13612586430883
        ]
      }
    },
    {
      "type": "Feature",
      "properties": {
        "norad_id": 37533,
        "name": "COSMOS 2251 DEB",
        "group": "cosmos-2251-debris",
        "lat": -26.018744731991703,
        "lon": -164.591939492014,
        "alt_km": 819.3484689983216,
        "timestamp": "2025-12-06T03:35:02.283975+00:00",
        "meta_object_name": "COSMOS 2251 DEB",
        "meta_object_id": "1993-036BNN",
        "meta_epoch": "2025-12-04T07:30:18.688320",
        "meta_mean_motion": 14.12102673,
        "meta_eccentricity": 0.015842,
        "meta_inclination": 74.0693,
        "meta_ra_of_asc_node": 206.6584,
        "meta_arg_of_pericenter": 265.189,
        "meta_mean_anomaly": 93.1146,
        "meta_ephemeris_type": 0,
        "meta_classification_type": "U",
        "meta_norad_cat_id": 37533,
        "meta_element_set_no": 999,
        "meta_rev_at_epoch": 62802,
        "meta_bstar": 0.0025745,
        "meta_mean_motion_dot": 5.293e-05,
        "meta_mean_motion_ddot": 0,
        "tle_line1": "1 37533U 93036BNN 25338.31271630  .00005293  00000+0  25745-2 0  9999",
        "tle_line2": "2 37533  74.0693 206.6584 0158420 265.1890  93.1146 14.12102673628023"
      },
      "geometry": {
        "type": "Point",
        "coordinates": [
          -164.591939492014,
          -26.018744731991703
        ]
      }
    },
    {
      "type": "Feature",
      "properties": {
        "norad_id": 37535,
        "name": "COSMOS 2251 DEB",
        "group": "cosmos-2251-debris",
        "lat": -53.123914467662495,
        "lon": -71.49447813124692,
        "alt_km": 685.4324479521147,
        "timestamp": "2025-12-06T03:35:02.283986+00:00",
        "meta_object_name": "COSMOS 2251 DEB",
        "meta_object_id": "1993-036BNQ",
        "meta_epoch": "2025-12-05T00:41:11.180832",
        "meta_mean_motion": 14.5836277,
        "meta_eccentricity": 0.00281769,
        "meta_inclination": 74.0241,
        "meta_ra_of_asc_node": 88.1886,
        "meta_arg_of_pericenter": 228.116,
        "meta_mean_anomaly": 246.4914,
        "meta_ephemeris_type": 0,
        "meta_classification_type": "U",
        "meta_norad_cat_id": 37535,
        "meta_element_set_no": 999,
        "meta_rev_at_epoch": 85212,
        "meta_bstar": 0.0019157472,
        "meta_mean_motion_dot": 8.902e-05,
        "meta_mean_motion_ddot": 0,
        "tle_line1": "1 37535U 93036BNQ 25339.02860163  .00008902  00000+0  19157-2 0  9995",
        "tle_line2": "2 37535  74.0241  88.1886 0028176 228.1160 246.4914 14.58362770852127"
      },
      "geometry": {
        "type": "Point",
        "coordinates": [
          -71.49447813124692,
          -53.123914467662495
        ]
      }
    },
    {
      "type": "Feature",
      "properties": {
        "norad_id": 37537,
        "name": "COSMOS 2251 DEB",
        "group": "cosmos-2251-debris",
        "lat": -22.72980780845601,
        "lon": 104.17158373137717,
        "alt_km": 800.9068043903799,
        "timestamp": "2025-12-06T03:35:02.283996+00:00",
        "meta_object_name": "COSMOS 2251 DEB",
        "meta_object_id": "1993-036BNS",
        "meta_epoch": "2025-12-04T13:53:52.711584",
        "meta_mean_motion": 14.3747249,
        "meta_eccentricity": 0.0050092,
        "meta_inclination": 74.012,
        "meta_ra_of_asc_node": 280.1661,
        "meta_arg_of_pericenter": 62.5345,
        "meta_mean_anomaly": 298.0888,
        "meta_ephemeris_type": 0,
        "meta_classification_type": "U",
        "meta_norad_cat_id": 37537,
        "meta_element_set_no": 999,
        "meta_rev_at_epoch": 84916,
        "meta_bstar": 0.00043114,
        "meta_mean_motion_dot": 1.283e-05,
        "meta_mean_motion_ddot": 0,
        "tle_line1": "1 37537U 93036BNS 25338.57908231  .00001283  00000+0  43114-3 0  9991",
        "tle_line2": "2 37537  74.0120 280.1661 0050092  62.5345 298.0888 14.37472490849168"
      },
      "geometry": {
        "type": "Point",
        "coordinates": [
          104.17158373137717,
          -22.72980780845601
        ]
      }
    },
    {
      "type": "Feature",
      "properties": {
        "norad_id": 37546,
        "name": "COSMOS 2251 DEB",
        "group": "cosmos-2251-debris",
        "lat": -12.852249799978686,
        "lon": 107.25501617008457,
        "alt_km": 637.1363960484905,
        "timestamp": "2025-12-06T03:35:02.284007+00:00",
        "meta_object_name": "COSMOS 2251 DEB",
        "meta_object_id": "1993-036BPB",
        "meta_epoch": "2025-12-04T02:58:34.086432",
        "meta_mean_motion": 14.79925039,
        "meta_eccentricity": 0.00067024,
        "meta_inclination": 74.0209,
        "meta_ra_of_asc_node": 114.9948,
        "meta_arg_of_pericenter": 140.2441,
        "meta_mean_anomaly": 219.9228,
        "meta_ephemeris_type": 0,
        "meta_classification_type": "U",
        "meta_norad_cat_id": 37546,
        "meta_element_set_no": 999,
        "meta_rev_at_epoch": 65760,
        "meta_bstar": 0.0065338648,
        "meta_mean_motion_dot": 0.000497,
        "meta_mean_motion_ddot": 0,
        "tle_line1": "1 37546U 93036BPB 25338.12400563  .00049700  00000+0  65339-2 0  9995",
        "tle_line2": "2 37546  74.0209 114.9948 0006702 140.2441 219.9228 14.79925039657602"
      },
      "geometry": {
        "type": "Point",
        "coordinates": [
          107.25501617008457,
          -12.852249799978686
        ]
      }
    },
    {
      "type": "Feature",
      "properties": {
        "norad_id": 37959,
        "name": "COSMOS 2251 DEB",
        "group": "cosmos-2251-debris",
        "lat": -12.351417032799294,
        "lon": 65.90484205324569,
        "alt_km": 732.0469460106879,
        "timestamp": "2025-12-06T03:35:02.284018+00:00",
        "meta_object_name": "COSMOS 2251 DEB",
        "meta_object_id": "1993-036BPJ",
        "meta_epoch": "2025-12-03T06:37:43.731840",
        "meta_mean_motion": 14.58029421,
        "meta_eccentricity": 0.0058457,
        "meta_inclination": 74.0113,
        "meta_ra_of_asc_node": 74.9761,
        "meta_arg_of_pericenter": 219.613,
        "meta_mean_anomaly": 172.3716,
        "meta_ephemeris_type": 0,
        "meta_classification_type": "U",
        "meta_norad_cat_id": 37959,
        "meta_element_set_no": 999,
        "meta_rev_at_epoch": 79989,
        "meta_bstar": 0.0012228,
        "meta_mean_motion_dot": 5.729e-05,
        "meta_mean_motion_ddot": 0,
        "tle_line1": "1 37959U 93036BPJ 25337.27620060  .00005729  00000+0  12228-2 0  9996",
        "tle_line2": "2 37959  74.0113  74.9761 0058457 219.6130 172.3716 14.58029421799891"
      },
      "geometry": {
        "type": "Point",
        "coordinates": [
          65.90484205324569,
          -12.351417032799294
        ]
      }
    },
    {
      "type": "Feature",
      "properties": {
        "norad_id": 37960,
        "name": "COSMOS 2251 DEB",
        "group": "cosmos-2251-debris",
        "lat": -37.83772691190873,
        "lon": -174.381871553425,
        "alt_km": 905.1180079076594,
        "timestamp": "2025-12-06T03:35:02.284028+00:00",
        "meta_object_name": "COSMOS 2251 DEB",
        "meta_object_id": "1993-036BPK",
        "meta_epoch": "2025-12-03T21:12:07.257312",
        "meta_mean_motion": 14.07814282,
        "meta_eccentricity": 0.0249391,
        "meta_inclination": 74.0597,
        "meta_ra_of_asc_node": 202.4135,
        "meta_arg_of_pericenter": 223.2631,
        "meta_mean_anomaly": 134.8686,
        "meta_ephemeris_type": 0,
        "meta_classification_type": "U",
        "meta_norad_cat_id": 37960,
        "meta_element_set_no": 999,
        "meta_rev_at_epoch": 77281,
        "meta_bstar": 0.0016575,
        "meta_mean_motion_dot": 3.709e-05,
        "meta_mean_motion_ddot": 0,
        "tle_line1": "1 37960U 93036BPK 25337.88341733  .00003709  00000+0  16575-2 0  9997",
        "tle_line2": "2 37960  74.0597 202.4135 0249391 223.2631 134.8686 14.07814282772811"
      },
      "geometry": {
        "type": "Point",
        "coordinates": [
          -174.381871553425,
          -37.83772691190873
        ]
      }
    }
  ]
}